[{"OBJECT_NAME":"ONEWEB-0132","OBJECT_ID":"2020-100W","EPOCH":"2026-03-09T21:04:41.543040","MEAN_MOTION":13.12443172,"ECCENTRICITY":0.00017835,"INCLINATION":87.8995,"RA_OF_ASC_NODE":10.3881,"ARG_OF_PERICENTER":81.9469,"MEAN_ANOMALY":278.1862,"EPHEMERIS_TYPE":0,"CLASSIFICATION_TYPE":"U","NORAD_CAT_ID":47278,"ELEMENT_SET_NO":999,"REV_AT_EPOCH":25155,"BSTAR":-2.769686e-6,"MEAN_MOTION_DOT":1.2e-7,"MEAN_MOTION_DDOT":0},{"OBJECT_NAME":"THOR ABLESTAR DEB","OBJECT_ID":"1961-015CN","EPOCH":"2026-03-09T07:09:24.745248","MEAN_MOTION":12.51696167,"ECCENTRICITY":0.06496657,"INCLINATION":67.941,"RA_OF_ASC_NODE":29.3836,"ARG_OF_PERICENTER":219.7655,"MEAN_ANOMALY":296.6984,"EPHEMERIS_TYPE":0,"CLASSIFICATION_TYPE":"U","NORAD_CAT_ID":268,"ELEMENT_SET_NO":999,"REV_AT_EPOCH":94075,"BSTAR":0.00035315795,"MEAN_MOTION_DOT":7.1e-7,"MEAN_MOTION_DDOT":0}]
